[{"OBJECT_NAME":"ICEYE-X40","OBJECT_ID":"2024-149CK","EPOCH":"2026-03-09T18:13:16.348800","MEAN_MOTION":14.97556326,"ECCENTRICITY":0.00059832,"INCLINATION":97.6865,"RA_OF_ASC_NODE":146.8579,"ARG_OF_PERICENTER":65.2061,"MEAN_ANOMALY":294.9783,"EPHEMERIS_TYPE":0,"CLASSIFICATION_TYPE":"U","NORAD_CAT_ID":60549,"ELEMENT_SET_NO":999,"REV_AT_EPOCH":8519,"BSTAR":0.00028351559,"MEAN_MOTION_DOT":3.253e-5,"MEAN_MOTION_DDOT":0},{"OBJECT_NAME":"STARLINK-32516","OBJECT_ID":"2024-225P","EPOCH":"2026-03-09T16:45:08.871840","MEAN_MOTION":14.98339257,"ECCENTRICITY":0.00034447,"INCLINATION":70.0022,"RA_OF_ASC_NODE":164.5399,"ARG_OF_PERICENTER":273.3746,"MEAN_ANOMALY":86.7019,"EPHEMERIS_TYPE":0,"CLASSIFICATION_TYPE":"U","NORAD_CAT_ID":62176,"ELEMENT_SET_NO":999,"REV_AT_EPOCH":6987,"BSTAR":0.00054834516,"MEAN_MOTION_DOT":6.458e-5,"MEAN_MOTION_DDOT":0}]
