ICEYE-X40               
1 60549U 24149CK  26068.75921699  .00003253  00000+0  28352-3 0  9999
2 60549  97.6865 146.8579 0005983  65.2061 294.9783 14.97556326 85195
STARLINK-32516          
1 62176U 24225P   26068.69801935  .00006458  00000+0  54835-3 0  9990
2 62176  70.0022 164.5399 0003445 273.3746  86.7019 14.98339257 69872
